[{"OBJECT_NAME":"STARLINK-5344","OBJECT_ID":"2023-015AX","EPOCH":"2026-03-09T22:00:01.999584","MEAN_MOTION":15.10994868,"ECCENTRICITY":0.00016686,"INCLINATION":42.9995,"RA_OF_ASC_NODE":337.1804,"ARG_OF_PERICENTER":251.7021,"MEAN_ANOMALY":145.4845,"EPHEMERIS_TYPE":0,"CLASSIFICATION_TYPE":"U","NORAD_CAT_ID":55494,"ELEMENT_SET_NO":999,"REV_AT_EPOCH":577,"BSTAR":0.00071850787,"MEAN_MOTION_DOT":0.00012008,"MEAN_MOTION_DDOT":0},{"OBJECT_NAME":"CZ-4 DEB","OBJECT_ID":"2006-046L","EPOCH":"2026-03-09T05:26:57.251328","MEAN_MOTION":15.20206122,"ECCENTRICITY":0.00567956,"INCLINATION":97.8211,"RA_OF_ASC_NODE":163.0679,"ARG_OF_PERICENTER":229.3561,"MEAN_ANOMALY":130.2727,"EPHEMERIS_TYPE":0,"CLASSIFICATION_TYPE":"U","NORAD_CAT_ID":35378,"ELEMENT_SET_NO":999,"REV_AT_EPOCH":2541,"BSTAR":0.0021311714,"MEAN_MOTION_DOT":0.00048409,"MEAN_MOTION_DDOT":0}]
